EUTELSAT 16A            
1 37836U 11057A   25207.11225247  .00000092  00000+0  00000+0 0  9990
2 37836   0.0637 356.1216 0005562 128.0050 236.3268  1.00269694 50522
EUTELSAT 21B            
1 38992U 12062B   25206.69914712  .00000118  00000+0  00000+0 0  9994
2 38992   0.0666 356.1423 0003041 121.6270  99.1723  1.00268963 46558
EUTELSAT 70B            
1 39020U 12069A   25206.92300100 -.00000055  00000+0  00000+0 0  9991
2 39020   0.0621 357.0219 0003591 128.1330 221.4775  1.00271157 46235
EUTELSAT 117 WEST A     
1 39122U 13012A   25207.17138675 -.00000024  00000+0  00000+0 0  9993
2 39122   0.0118  53.1922 0002817  79.2813 116.5187  1.00271135 45197
EUTELSAT 7B             
1 39163U 13022A   25206.93725126  .00000036  00000+0  00000+0 0  9997
2 39163   0.0666 355.8669 0002846  51.9398 240.4557  1.00272257 44684
EXPRESS-AT1             
1 39612U 14010A   25207.13421005  .00000067  00000+0  00000+0 0  9990
2 39612   0.0219  79.1271 0000049 238.9907  90.2723  1.00270717 41781
EXPRESS-AT2             
1 39613U 14010B   25206.93669440 -.00000293  00000+0  00000+0 0  9997
2 39613   0.0185  74.2043 0000237  61.4376 285.2987  1.00271360 41610
EUTELSAT 3B             
1 39773U 14030A   25206.93725126  .00000008  00000+0  00000+0 0  9993
2 39773   0.0613 358.4339 0003965 134.4155 151.5210  1.00270409 40790
